[{"OBJECT_NAME":"STARLINK-30263","OBJECT_ID":"2023-122L","EPOCH":"2026-03-09T10:41:15.655776","MEAN_MOTION":15.267389,"ECCENTRICITY":0.00012868,"INCLINATION":43.0011,"RA_OF_ASC_NODE":93.5321,"ARG_OF_PERICENTER":265.2703,"MEAN_ANOMALY":94.8002,"EPHEMERIS_TYPE":0,"CLASSIFICATION_TYPE":"U","NORAD_CAT_ID":57642,"ELEMENT_SET_NO":999,"REV_AT_EPOCH":14217,"BSTAR":2.930359e-5,"MEAN_MOTION_DOT":5.26e-6,"MEAN_MOTION_DDOT":0},{"OBJECT_NAME":"EXPLORER 7","OBJECT_ID":"1959-009A","EPOCH":"2026-03-09T22:10:28.426368","MEAN_MOTION":15.26652664,"ECCENTRICITY":0.00808181,"INCLINATION":50.2405,"RA_OF_ASC_NODE":230.2318,"ARG_OF_PERICENTER":85.1115,"MEAN_ANOMALY":275.9066,"EPHEMERIS_TYPE":0,"CLASSIFICATION_TYPE":"U","NORAD_CAT_ID":22,"ELEMENT_SET_NO":999,"REV_AT_EPOCH":78517,"BSTAR":0.00064628265,"MEAN_MOTION_DOT":0.00018598,"MEAN_MOTION_DDOT":0}]
